{
    "links": {
        "self": "http://www.neowsapp.com/rest/v1/neo/3781589?api_key=iIulBulltgU6a56xZRHN4H3l9WmuAYTsLGpBGhQ2"
    },
    "id": "3781589",
    "neo_reference_id": "3781589",
    "name": "(2017 SJ2)",
    "designation": "2017 SJ2",
    "nasa_jpl_url": "http://ssd.jpl.nasa.gov/sbdb.cgi?sstr=3781589",
    "absolute_magnitude_h": 23.8,
    "estimated_diameter": {
        "kilometers": {
            "estimated_diameter_min": 0.046190746,
            "estimated_diameter_max": 0.1032856481
        },
        "meters": {
            "estimated_diameter_min": 46.1907460282,
            "estimated_diameter_max": 103.2856480504
        },
        "miles": {
            "estimated_diameter_min": 0.0287015901,
            "estimated_diameter_max": 0.0641787064
        },
        "feet": {
            "estimated_diameter_min": 151.544447199,
            "estimated_diameter_max": 338.8636855496
        }
    },
    "is_potentially_hazardous_asteroid": false,
    "close_approach_data": [
        {
            "close_approach_date": "2017-09-12",
            "close_approach_date_full": "2017-Sep-12 13:25",
            "epoch_date_close_approach": 1505222700000,
            "relative_velocity": {
                "kilometers_per_second": "8.0131955235",
                "kilometers_per_hour": "28847.5038845115",
                "miles_per_hour": "17924.7170664622"
            },
            "miss_distance": {
                "astronomical": "0.1263600928",
                "lunar": "49.1540760992",
                "kilometers": "18903200.735882336",
                "miles": "11745904.2724587968"
            },
            "orbiting_body": "Earth"
        }
    ],
    "orbital_data": {
        "orbit_id": "4",
        "orbit_determination_date": "2017-10-11 06:31:10",
        "first_observation_date": "2017-09-17",
        "last_observation_date": "2017-10-10",
        "data_arc_in_days": 23,
        "observations_used": 26,
        "orbit_uncertainty": "8",
        "minimum_orbit_intersection": ".114155",
        "jupiter_tisserand_invariant": "3.219",
        "epoch_osculation": "2458020.5",
        "eccentricity": ".5613819912535786",
        "semi_major_axis": "2.50267049429169",
        "inclination": "6.564960526576657",
        "ascending_node_longitude": "15.80513973159058",
        "orbital_period": "1446.118683198065",
        "perihelion_distance": "1.097716348754643",
        "perihelion_argument": "318.9344043398192",
        "aphelion_distance": "3.907624639828736",
        "perihelion_time": "2457997.686581334294",
        "mean_anomaly": "5.679223161332535",
        "mean_motion": ".2489422231955862",
        "equinox": "J2000",
        "orbit_class": {
            "orbit_class_type": "AMO",
            "orbit_class_description": "Near-Earth asteroid orbits similar to that of 1221 Amor",
            "orbit_class_range": "1.017 AU < q (perihelion) < 1.3 AU"
        }
    },
    "is_sentry_object": false
}